NORAD_CAT_ID,OBJECT_NAME,OBJECT_TYPE,EPOCH,MEAN_MOTION,ECCENTRICITY,INCLINATION,RA_OF_ASC_NODE,ARG_OF_PERICENTER,MEAN_ANOMALY,BSTAR,MEAN_MOTION_DOT,MEAN_MOTION_DDOT,TLE_LINE0,TLE_LINE1,TLE_LINE2,SEMIMAJOR_AXIS,PERIOD,APOGEE,PERIGEE,DECAYED
53246.0,STARLINK-4131,PAYLOAD,2023-06-29 08:53:05,15.08834791,8.65e-05,53.2168,302.9053,96.0946,264.0145,2.8536e-05,1.66e-06,0.0,0 STARLINK-4131,1 53246U 22086E   23180.37020604  .00000166  00000-0  28536-4 0  9995,2 53246  53.2168 302.9053 0000865  96.0946 264.0145 15.08834791 52142,6917.896,95.438,540.36,539.163,0.0
53246.0,STARLINK-4131,PAYLOAD,2023-06-30 15:05:25,15.08842605,0.0001068,53.2182,297.258,102.5303,257.5809,6.4415e-05,7.38e-06,0.0,0 STARLINK-4131,1 53246U 22086E   23181.62876185  .00000738  00000-0  64415-4 0  9998,2 53246  53.2182 297.2580 0001068 102.5303 257.5809 15.08842605 52333,6917.872,95.437,540.476,538.999,0.0
53246.0,STARLINK-4131,PAYLOAD,2023-07-01 06:59:16,15.08831128,7.77e-05,53.2163,294.2823,84.4919,275.6162,1.2707e-05,-8.5e-07,0.0,0 STARLINK-4131,1 53246U 22086E   23182.29116805 -.00000085  00000-0  12707-4 0  9991,2 53246  53.2163 294.2823 0000777  84.4919 275.6162 15.08831128 52438,6917.908,95.438,540.31,539.235,0.0
53246.0,STARLINK-4131,PAYLOAD,2023-07-02 14:46:59,15.08843486,8.48e-05,53.2171,288.3347,90.8398,269.2691,7.7947e-05,9.53e-06,0.0,0 STARLINK-4131,1 53246U 22086E   23183.61596613  .00000953  00000-0  77947-4 0  9997,2 53246  53.2171 288.3347 0000848  90.8398 269.2691 15.08843486 52631,6917.87,95.437,540.321,539.148,0.0
53246.0,STARLINK-4131,PAYLOAD,2023-07-03 16:13:08,15.08853013,7.91e-05,53.2173,283.5763,86.0627,274.0456,0.0002062,2.997e-05,0.0,0 STARLINK-4131,1 53246U 22086E   23184.67579607  .00002997  00000-0  20620-3 0  9993,2 53246  53.2173 283.5763 0000791  86.0627 274.0456 15.08853013 52798,6917.841,95.437,540.253,539.158,0.0
53246.0,STARLINK-4131,PAYLOAD,2023-07-04 00:10:05,15.08840356,8.2e-05,53.2178,282.0892,97.9223,262.1863,7.5637e-05,9.16e-06,0.0,0 STARLINK-4131,1 53246U 22086E   23185.00700606  .00000916  00000-0  75637-4 0  9994,2 53246  53.2178 282.0892 0000820  97.9223 262.1863 15.08840356 52848,6917.879,95.438,540.312,539.177,0.0
53246.0,STARLINK-4131,PAYLOAD,2023-07-05 06:22:25,15.08839588,0.0001005,53.2176,276.437,111.718,248.3919,-1.4265e-05,-5.15e-06,0.0,0 STARLINK-4131,1 53246U 22086E   23186.26556968 -.00000515  00000-0 -14265-4 0  9990,2 53246  53.2176 276.4370 0001005 111.7180 248.3919 15.08839588 53032,6917.882,95.438,540.442,539.051,0.0
53246.0,STARLINK-4131,PAYLOAD,2023-07-06 06:13:12,15.08823735,8.55e-05,53.2167,271.9788,88.0045,272.1045,0.00030321,4.539e-05,0.0,0 STARLINK-4131,1 53246U 22086E   23187.25917414  .00004539  00000-0  30321-3 0  9995,2 53246  53.2167 271.9788 0000855  88.0045 272.1045 15.08823735 53181,6917.93,95.439,540.387,539.204,0.0
53246.0,STARLINK-4131,PAYLOAD,2023-07-06 14:10:07,15.0884344,8.2e-05,53.2166,270.4922,80.2385,279.87,0.00012117,1.641e-05,0.0,0 STARLINK-4131,1 53246U 22086E   23187.59036633  .00001641  00000-0  12117-3 0  9991,2 53246  53.2166 270.4922 0000820  80.2385 279.8700 15.08843440 53230,6917.87,95.437,540.302,539.168,0.0
53246.0,STARLINK-4131,PAYLOAD,2023-07-07 21:57:50,15.08849466,8.47e-05,53.2166,264.5453,76.4728,283.6359,0.00016025,2.264e-05,0.0,0 STARLINK-4131,1 53246U 22086E   23188.91516234  .00002264  00000-0  16025-3 0  9992,2 53246  53.2166 264.5453 0000847  76.4728 283.6359 15.08849466 53439,6917.851,95.437,540.302,539.131,0.0
53246.0,STARLINK-4131,PAYLOAD,2023-07-08 04:19:23,15.08840387,8.83e-05,53.2166,263.3564,79.8154,280.2937,5.1514e-05,5.32e-06,0.0,0 STARLINK-4131,1 53246U 22086E   23189.18013182  .00000532  00000-0  51514-4 0  9995,2 53246  53.2166 263.3564 0000883  79.8154 280.2937 15.08840387 53471,6917.879,95.438,540.355,539.133,0.0
53246.0,STARLINK-4131,PAYLOAD,2023-07-09 04:10:11,15.08831648,8.49e-05,53.217,258.8952,87.9739,272.135,-5.9187e-06,-3.82e-06,0.0,0 STARLINK-4131,1 53246U 22086E   23190.17373878 -.00000382  00000-0 -59187-5 0  9997,2 53246  53.2170 258.8952 0000849  87.9739 272.1350 15.08831648 53623,6917.906,95.438,540.358,539.184,0.0
53246.0,STARLINK-4131,PAYLOAD,2023-07-10 04:00:57,15.08838943,9.21e-05,53.2165,254.4343,82.1066,278.0031,5.0957e-05,5.23e-06,0.0,0 STARLINK-4131,1 53246U 22086E   23191.16733538  .00000523  00000-0  50957-4 0  9990,2 53246  53.2165 254.4343 0000921  82.1066 278.0031 15.08838943 53776,6917.884,95.438,540.386,539.111,0.0
53246.0,STARLINK-4131,PAYLOAD,2023-07-11 11:48:40,15.08841403,8.82e-05,53.2157,248.4875,79.0763,281.0329,0.00013048,1.79e-05,0.0,0 STARLINK-4131,1 53246U 22086E   23192.49213188  .00001790  00000-0  13048-3 0  9997,2 53246  53.2157 248.4875 0000882  79.0763 281.0329 15.08841403 53976,6917.876,95.437,540.351,539.131,0.0
53246.0,STARLINK-4131,PAYLOAD,2023-07-13 08:19:28,15.08838919,9.35e-05,53.2158,240.1612,82.2685,277.8414,-1.0672e-07,-2.89e-06,0.0,0 STARLINK-4131,1 53246U 22086E   23194.34685639 -.00000289  00000-0 -10672-6 0  9994,2 53246  53.2158 240.1612 0000935  82.2685 277.8414 15.08838919 54251,6917.884,95.438,540.396,539.102,0.0
53246.0,STARLINK-4131,PAYLOAD,2023-07-14 09:45:38,15.08841032,7.78e-05,53.2159,235.403,93.3963,266.7118,5.2487e-05,5.48e-06,0.0,0 STARLINK-4131,1 53246U 22086E   23195.40669400  .00000548  00000-0  52487-4 0  9994,2 53246  53.2159 235.4030 0000778  93.3963 266.7118 15.08841032 54416,6917.877,95.437,540.28,539.204,0.0
53246.0,STARLINK-4131,PAYLOAD,2023-07-15 09:36:25,15.08837667,0.0001001,53.2158,230.9421,94.2179,265.8928,9.0683e-05,1.156e-05,0.0,0 STARLINK-4131,1 53246U 22086E   23196.40029813  .00001156  00000-0  90683-4 0  9999,2 53246  53.2158 230.9421 0001001  94.2179 265.8928 15.08837667 54562,6917.888,95.438,540.445,539.06,0.0
53246.0,STARLINK-4131,PAYLOAD,2023-07-16 03:05:40,15.08834138,0.0001049,53.2161,227.6709,95.2617,264.8495,1.6714e-05,-2.2e-07,0.0,0 STARLINK-4131,1 53246U 22086E   23197.12894465 -.00000022  00000-0  16714-4 0  9997,2 53246  53.2161 227.6709 0001049  95.2617 264.8495 15.08834138 54678,6917.898,95.438,540.489,539.038,0.0
53246.0,STARLINK-4131,PAYLOAD,2023-07-17 07:42:36,15.08842905,0.0001014,53.2159,222.3181,89.9018,270.2091,6.8922e-05,8.09e-06,0.0,0 STARLINK-4131,1 53246U 22086E   23198.32125980  .00000809  00000-0  68922-4 0  9999,2 53246  53.2159 222.3181 0001014  89.9018 270.2091 15.08842905 54852,6917.872,95.437,540.438,539.035,0.0
53246.0,STARLINK-4131,PAYLOAD,2023-07-18 07:33:24,15.08839203,9.57e-05,53.2156,217.8575,88.8826,271.2276,7.9761e-05,9.82e-06,0.0,0 STARLINK-4131,1 53246U 22086E   23199.31486180  .00000982  00000-0  79761-4 0  9996,2 53246  53.2156 217.8575 0000957  88.8826 271.2276 15.08839203 55006,6917.883,95.438,540.41,539.086,0.0
53246.0,STARLINK-4131,PAYLOAD,2023-07-19 10:34:57,15.08842916,0.000102,53.2156,212.8027,84.0299,276.0809,3.9952e-05,3.48e-06,0.0,0 STARLINK-4131,1 53246U 22086E   23200.44094019  .00000348  00000-0  39952-4 0  9993,2 53246  53.2156 212.8027 0001020  84.0299 276.0809 15.08842916 55175,6917.871,95.437,540.442,539.031,0.0
53246.0,STARLINK-4131,PAYLOAD,2023-07-20 07:14:58,15.08838866,0.0001072,53.2158,208.9366,98.6004,261.511,3.1697e-05,2.17e-06,0.0,0 STARLINK-4131,1 53246U 22086E   23201.30206221  .00000217  00000-0  31697-4 0  9992,2 53246  53.2158 208.9366 0001072  98.6004 261.5110 15.08838866 55309,6917.884,95.438,540.49,539.007,0.0
53246.0,STARLINK-4131,PAYLOAD,2023-07-21 10:16:31,15.08840018,0.0001059,53.2156,203.8812,97.2398,262.8715,3.687e-05,2.99e-06,0.0,0 STARLINK-4131,1 53246U 22086E   23202.42814159  .00000299  00000-0  36870-4 0  9999,2 53246  53.2156 203.8812 0001059  97.2398 262.8715 15.08840018 55478,6917.88,95.438,540.478,539.013,0.0
53246.0,STARLINK-4131,PAYLOAD,2023-07-24 11:24:16,15.0883893,0.0001087,53.2154,190.2026,90.308,269.8036,5.248e-05,5.47e-06,0.0,0 STARLINK-4131,1 53246U 22086E   23205.47518797  .00000547  00000-0  52480-4 0  9997,2 53246  53.2154 190.2026 0001087  90.3080 269.8036 15.08838930 55322,6917.884,95.438,540.501,538.997,0.0
53246.0,STARLINK-4131,PAYLOAD,2023-07-25 11:15:03,15.0884344,0.0001242,53.2175,185.7396,84.1161,275.9972,3.5233e-05,2.73e-06,0.0,0 STARLINK-4131,1 53246U 22086E   23206.46878634  .00000273  00000-0  35233-4 0  9999,2 53246  53.2175 185.7396 0001242  84.1161 275.9972 15.08843440 55473,6917.87,95.437,540.594,538.876,0.0
53246.0,STARLINK-4131,PAYLOAD,2023-07-26 07:55:05,15.08836772,0.0004,53.2186,181.8713,72.9059,287.2371,1.9687e-05,2.4e-07,0.0,0 STARLINK-4131,1 53246U 22086E   23207.32992397  .00000024  00000-0  19687-4 0  9997,2 53246  53.2186 181.8713 0004000  72.9059 287.2371 15.08836772 55605,6917.89,95.438,542.522,536.988,0.0
53246.0,STARLINK-4131,PAYLOAD,2023-07-26 22:13:32,15.08844339,0.0001375,53.2166,179.1959,114.6327,245.4808,7.1945e-05,8.57e-06,0.0,0 STARLINK-4131,1 53246U 22086E   23207.92606493  .00000857  00000-0  71945-4 0  9991,2 53246  53.2166 179.1959 0001375 114.6327 245.4808 15.08844339 55697,6917.867,95.437,540.683,538.781,0.0
53246.0,STARLINK-4131,PAYLOAD,2023-07-27 01:24:18,15.08846168,0.0001331,53.2158,178.6024,114.1893,245.9239,0.00010941,1.454e-05,0.0,0 STARLINK-4131,1 53246U 22086E   23208.05854192  .00001454  00000-0  10941-3 0  9999,2 53246  53.2158 178.6024 0001331 114.1893 245.9239 15.08846168 56326,6917.862,95.437,540.647,538.806,0.0
53246.0,STARLINK-4131,PAYLOAD,2023-07-27 04:35:04,15.08853721,0.0001223,53.2153,178.0091,94.2878,265.8254,2.49e-05,1.09e-06,0.0,0 STARLINK-4131,1 53246U 22086E   23208.19102181  .00000109  00000-0  24900-4 0  9995,2 53246  53.2153 178.0091 0001223  94.2878 265.8254 15.08853721 55735,6917.838,95.437,540.55,538.857,0.0
53246.0,STARLINK-4131,PAYLOAD,2023-07-27 22:04:19,15.08832414,0.0001524,53.2157,174.7401,82.8039,277.3126,4.6395e-05,4.5e-06,0.0,0 STARLINK-4131,1 53246U 22086E   23208.91967452  .00000450  00000-0  46395-4 0  9996,2 53246  53.2157 174.7401 0001524  82.8039 277.3126 15.08832414 55847,6917.904,95.438,540.823,538.714,0.0
